IRIDIUM 57 [-]          
1 25273U 98019B   24035.41766460  .00000548  00000+0  18555-3 0  9997
2 25273  86.3995 354.1346 0002173  85.7912 274.3532 14.35068243353230
IRIDIUM 63 [-]          
1 25286U 98021B   24035.21214950  .00000505  00000+0  16857-3 0  9990
2 25286  86.3979 291.1541 0002288  87.7537 272.3921 14.35592261352236
IRIDIUM 69 [-]          
1 25319U 98026A   24035.81102444  .00000622  00000+0  19206-3 0  9993
2 25319  86.3998 305.6887 0001547 160.5213 199.6045 14.39785950351562
IRIDIUM 71 [-]          
1 25320U 98026B   24035.28488605  .00000581  00000+0  17810-3 0  9995
2 25320  86.3984 300.7035 0000930  11.8232 348.2989 14.40105756351767
IRIDIUM 73 [-]          
1 25344U 98032C   24035.59909301  .00000677  00000+0  16872-3 0  9996
2 25344  86.4387 258.1838 0001620 101.7660 258.3726 14.50274654358266
IRIDIUM 82 [-]          
1 25467U 98051A   24035.38358891  .00020108  00000+0  11056-2 0  9991
2 25467  86.3945 348.9673 0138228 352.0187   7.8846 15.06044822348326
IRIDIUM 2 [-]           
1 25527U 98066A   24035.45203628  .00054627  00000+0  86393-3 0  9999
2 25527  85.5135  28.7791 0007914 105.0452 255.1684 15.53215694386977
